[
   {
      "name": "STARLINK-1277",
      "line1": "1 45369U 20019K   21092.83442009  .00000829  00000-0  74573-4 0  9992",
      "line2": "2 45369  53.0581 335.4498 0001897  83.4465 276.6740 15.06400136 58159",
      "drg": 7.4573,
      "inc": 53.0581,
      "ran": 335.4498,
      "ecc": 0.0001897,
      "aop": 83.4465,
      "man": 276.674,
      "mmo": 15.06400136,
      "sma": 6925.34814
   },
   {
      "name": "STARLINK-1281",
      "line1": "1 45370U 20019L   21092.95701397 -.00000814  00000-0 -35716-4 0  9997",
      "line2": "2 45370  53.0589 334.8998 0002188  81.6626 278.4611 15.06393953 58177",
      "drg": -3.5716,
      "inc": 53.0589,
      "ran": 334.8998,
      "ecc": 0.0002188,
      "aop": 81.6626,
      "man": 278.4611,
      "mmo": 15.06393953,
      "sma": 6925.36709
   },
   {
      "name": "STARLINK-1287",
      "line1": "1 45371U 20019M   21092.85380721 -.00000424  00000-0 -95183-5 0  9993",
      "line2": "2 45371  53.0588 335.3689 0002229  82.9204 277.2038 15.06392957 58153",
      "drg": -0.95183,
      "inc": 53.0588,
      "ran": 335.3689,
      "ecc": 0.0002229,
      "aop": 82.9204,
      "man": 277.2038,
      "mmo": 15.06392957,
      "sma": 6925.37014
   },
   {
      "name": "STARLINK-1288",
      "line1": "1 45372U 20019N   21092.93489973  .00001139  00000-0  95351-4 0  9990",
      "line2": "2 45372  53.0594 335.0005 0002053  83.0078 277.1144 15.06394141 58161",
      "drg": 9.5351,
      "inc": 53.0594,
      "ran": 335.0005,
      "ecc": 0.0002053,
      "aop": 83.0078,
      "man": 277.1144,
      "mmo": 15.06394141,
      "sma": 6925.36652
   },
   {
      "name": "STARLINK-1295",
      "line1": "1 45373U 20019P   21092.85012091 -.00000747  00000-0 -31233-4 0  9990",
      "line2": "2 45373  53.0587 335.3777 0001985  83.2896 276.8319 15.06394587 58159",
      "drg": -3.1233,
      "inc": 53.0587,
      "ran": 335.3777,
      "ecc": 0.0001985,
      "aop": 83.2896,
      "man": 276.8319,
      "mmo": 15.06394587,
      "sma": 6925.36515
   },
   {
      "name": "STARLINK-1300",
      "line1": "1 45374U 20019Q   21092.84643355 -.00000666  00000-0 -25791-4 0  9995",
      "line2": "2 45374  53.0578 335.3911 0002185  79.2741 280.8494 15.06394156 58158",
      "drg": -2.5791,
      "inc": 53.0578,
      "ran": 335.3911,
      "ecc": 0.0002185,
      "aop": 79.2741,
      "man": 280.8494,
      "mmo": 15.06394156,
      "sma": 6925.36647
   },
   {
      "name": "STARLINK-1302",
      "line1": "1 45375U 20019R   21092.92752385 -.00000025  00000-0  17257-4 0  9995",
      "line2": "2 45375  53.0578 335.0374 0002135  86.2325 273.8908 15.06395648 58160",
      "drg": 1.7257,
      "inc": 53.0578,
      "ran": 335.0374,
      "ecc": 0.0002135,
      "aop": 86.2325,
      "man": 273.8908,
      "mmo": 15.06395648,
      "sma": 6925.3619
   },
   {
      "name": "STARLINK-1304",
      "line1": "1 45376U 20019S   21092.94594766  .00001477  00000-0  11807-3 0  9990",
      "line2": "2 45376  53.0594 334.9466 0002240  85.0383 275.0862 15.06403743 58166",
      "drg": 11.807,
      "inc": 53.0594,
      "ran": 334.9466,
      "ecc": 0.000224,
      "aop": 85.0383,
      "man": 275.0862,
      "mmo": 15.06403743,
      "sma": 6925.33709
   },
   {
      "name": "STARLINK-1305",
      "line1": "1 45377U 20019T   21092.83905543  .00000769  00000-0  70500-4 0  9997",
      "line2": "2 45377  53.0589 335.4274 0001732  80.2370 279.8815 15.06405709 58155",
      "drg": 7.05,
      "inc": 53.0589,
      "ran": 335.4274,
      "ecc": 0.0001732,
      "aop": 80.237,
      "man": 279.8815,
      "mmo": 15.06405709,
      "sma": 6925.33106
   },
   {
      "name": "STARLINK-1310",
      "line1": "1 45378U 20019U   21092.82800084  .00000459  00000-0  49758-4 0  9998",
      "line2": "2 45378  53.0578 335.4858 0003308  89.9844 270.1524 15.06393805 58159",
      "drg": 4.9758,
      "inc": 53.0578,
      "ran": 335.4858,
      "ecc": 0.0003308,
      "aop": 89.9844,
      "man": 270.1524,
      "mmo": 15.06393805,
      "sma": 6925.36755
   },
   {
      "name": "STARLINK-1319",
      "line1": "1 45379U 20019V   21092.83168533  .00001096  00000-0  92483-4 0  9997",
      "line2": "2 45379  53.0589 335.4625 0002084  78.7765 281.3458 15.06396932 58156",
      "drg": 9.2483,
      "inc": 53.0589,
      "ran": 335.4625,
      "ecc": 0.0002084,
      "aop": 78.7765,
      "man": 281.3458,
      "mmo": 15.06396932,
      "sma": 6925.35796
   },
   {
      "name": "STARLINK-1207",
      "line1": "1 45380U 20019W   21092.89618342  .00001755  00000-0  13663-3 0  9997",
      "line2": "2 45380  53.0576 315.1751 0001841  84.2905 275.8294 15.06412028 58439",
      "drg": 13.663,
      "inc": 53.0576,
      "ran": 315.1751,
      "ecc": 0.0001841,
      "aop": 84.2905,
      "man": 275.8294,
      "mmo": 15.06412028,
      "sma": 6925.31169
   },
   {
      "name": "STARLINK-1258",
      "line1": "1 45381U 20019X   21092.90724920 -.00000925  00000-0 -43193-4 0  9992",
      "line2": "2 45381  53.0579 315.1291 0001796  91.9239 268.1956 15.06395650 58437",
      "drg": -4.3193,
      "inc": 53.0579,
      "ran": 315.1291,
      "ecc": 0.0001796,
      "aop": 91.9239,
      "man": 268.1956,
      "mmo": 15.0639565,
      "sma": 6925.36189
   },
   {
      "name": "STARLINK-1264",
      "line1": "1 45382U 20019Y   21092.88512718  .00000733  00000-0  68104-4 0  9994",
      "line2": "2 45382  53.0573 315.2327 0002099  86.7549 273.3680 15.06401660 58257",
      "drg": 6.8104,
      "inc": 53.0573,
      "ran": 315.2327,
      "ecc": 0.0002099,
      "aop": 86.7549,
      "man": 273.368,
      "mmo": 15.0640166,
      "sma": 6925.34347
   },
   {
      "name": "STARLINK-1266",
      "line1": "1 45383U 20019Z   21092.89987710 -.00001047  00000-0 -51402-4 0  9998",
      "line2": "2 45383  53.0565 315.1586 0002059  80.2579 279.8642 15.06393987 58434",
      "drg": -5.1402,
      "inc": 53.0565,
      "ran": 315.1586,
      "ecc": 0.0002059,
      "aop": 80.2579,
      "man": 279.8642,
      "mmo": 15.06393987,
      "sma": 6925.36699
   },
   {
      "name": "STARLINK-1267",
      "line1": "1 45384U 20019AA  21092.88882148 -.00000726  00000-0 -29855-4 0  9997",
      "line2": "2 45384  53.0575 315.2166 0001584  81.1062 279.0106 15.06394978 58438",
      "drg": -2.9855,
      "inc": 53.0575,
      "ran": 315.2166,
      "ecc": 0.0001584,
      "aop": 81.1062,
      "man": 279.0106,
      "mmo": 15.06394978,
      "sma": 6925.36395
   },
   {
      "name": "STARLINK-1272",
      "line1": "1 45386U 20019AC  21092.89250839  .00000681  00000-0  64618-4 0  9990",
      "line2": "2 45386  53.0568 315.1890 0001883  83.0553 277.0650 15.06395723 58434",
      "drg": 6.4618,
      "inc": 53.0568,
      "ran": 315.189,
      "ecc": 0.0001883,
      "aop": 83.0553,
      "man": 277.065,
      "mmo": 15.06395723,
      "sma": 6925.36167
   },
   {
      "name": "STARLINK-1274",
      "line1": "1 45387U 20019AD  21092.91463747  .00000835  00000-0  74926-4 0  9992",
      "line2": "2 45387  53.0584 315.0931 0001904  74.4836 285.6363 15.06402619 58439",
      "drg": 7.4926,
      "inc": 53.0584,
      "ran": 315.0931,
      "ecc": 0.0001904,
      "aop": 74.4836,
      "man": 285.6363,
      "mmo": 15.06402619,
      "sma": 6925.34053
   },
   {
      "name": "STARLINK-1280",
      "line1": "1 45388U 20019AE  21092.94963966  .00001524  00000-0  12122-3 0  9999",
      "line2": "2 45388  53.0594 334.9343 0002084  81.2318 278.8907 15.06394813 58152",
      "drg": 12.122,
      "inc": 53.0594,
      "ran": 334.9343,
      "ecc": 0.0002084,
      "aop": 81.2318,
      "man": 278.8907,
      "mmo": 15.06394813,
      "sma": 6925.36446
   },
   {
      "name": "STARLINK-1283",
      "line1": "1 45389U 20019AF  21092.86303902  .00001105  00000-0  93085-4 0  9992",
      "line2": "2 45389  53.0581 315.3292 0001630  84.3511 275.7664 15.06395424 58436",
      "drg": 9.3085,
      "inc": 53.0581,
      "ran": 315.3292,
      "ecc": 0.000163,
      "aop": 84.3511,
      "man": 275.7664,
      "mmo": 15.06395424,
      "sma": 6925.36258
   },
   {
      "name": "STARLINK-1284",
      "line1": "1 45390U 20019AG  21092.90356387  .00000697  00000-0  65702-4 0  9994",
      "line2": "2 45390  53.0573 315.1452 0001834  76.6326 283.4867 15.06403443 58431",
      "drg": 6.5702,
      "inc": 53.0573,
      "ran": 315.1452,
      "ecc": 0.0001834,
      "aop": 76.6326,
      "man": 283.4867,
      "mmo": 15.06403443,
      "sma": 6925.33801
   },
   {
      "name": "STARLINK-1289",
      "line1": "1 45391U 20019AH  21092.91831137  .00000642  00000-0  62034-4 0  9992",
      "line2": "2 45391  53.0571 315.0757 0001545  77.5252 282.5910 15.06388006 58160",
      "drg": 6.2034,
      "inc": 53.0571,
      "ran": 315.0757,
      "ecc": 0.0001545,
      "aop": 77.5252,
      "man": 282.591,
      "mmo": 15.06388006,
      "sma": 6925.38532
   },
   {
      "name": "STARLINK-1290",
      "line1": "1 45392U 20019AJ  21092.86476397  .00002533  00000-0  18774-3 0  9992",
      "line2": "2 45392  52.9940 314.5517 0002929  84.0736 276.0586 15.06634341 58156",
      "drg": 18.774,
      "inc": 52.994,
      "ran": 314.5517,
      "ecc": 0.0002929,
      "aop": 84.0736,
      "man": 276.0586,
      "mmo": 15.06634341,
      "sma": 6924.63043
   },
   {
      "name": "STARLINK-1291",
      "line1": "1 45393U 20019AK  21092.88144672 -.00000691  00000-0 -27499-4 0  9993",
      "line2": "2 45393  53.0563 315.2467 0001729  82.2703 277.8482 15.06393670 58198",
      "drg": -2.7499,
      "inc": 53.0563,
      "ran": 315.2467,
      "ecc": 0.0001729,
      "aop": 82.2703,
      "man": 277.8482,
      "mmo": 15.0639367,
      "sma": 6925.36796
   }
]